COSMOS 2433 (720)       
1 32275U 07052A   24335.33642445 -.00000038  00000+0  00000+0 0  9991
2 32275  65.8687 334.8442 0005754 254.3044 105.6600  2.13104109133086
COSMOS 2432 (719)       
1 32276U 07052B   24334.77014902 -.00000039  00000+0  00000+0 0  9991
2 32276  65.8843 334.9801 0011446 311.3289 279.9012  2.13103265133052
COSMOS 2434 (721)       
1 32393U 07065A   24335.26696471  .00000080  00000+0  00000+0 0  9992
2 32393  64.3152 210.9533 0004129  70.8547 127.8202  2.13101382131786
COSMOS 2436 (723)       
1 32395U 07065C   24334.57917775  .00000076  00000+0  00000+0 0  9995
2 32395  64.3238 211.0429 0017349   6.8334 158.8915  2.13100145131703
COSMOS 2456 (730)       
1 36111U 09070A   24334.40272753 -.00000011  00000+0  00000+0 0  9995
2 36111  64.6938  90.2901 0002283 299.0588 111.2102  2.13103646116436
COSMOS 2457 (733)       
1 36112U 09070B   24334.71628216 -.00000010  00000+0  00000+0 0  9998
2 36112  64.6786  90.1345 0005609 155.9816 267.4476  2.13101083116406
COSMOS 2460 (732)       
1 36402U 10007C   24335.21251071 -.00000038  00000+0  00000+0 0  9999
2 36402  65.7219 333.4847 0002978 270.5766 167.6000  2.13106289114804
COSMOS 2476 (744)       
1 37867U 11064A   24334.92132694 -.00000006  00000+0  00000+0 0  9990
2 37867  64.9640  91.9687 0023156 232.3111 127.3061  2.13101556101738
COSMOS 2477 (745)       
1 37868U 11064B   24334.91996228 -.00000005  00000+0  00000+0 0  9990
2 37868  64.9708  92.0428 0020298 232.6962 304.8260  2.13102967101729
COSMOS 2475 (743)       
1 37869U 11064C   24334.76716326 -.00000006  00000+0  00000+0 0  9994
2 37869  64.9776  92.0645 0024827 248.4454 129.5179  2.13101630101748
COSMOS 2485 (747)       
1 39155U 13019A   24335.33263918 -.00000003  00000+0  00000+0 0  9991
2 39155  65.1200  92.5733 0023707 228.3490 131.4295  2.13104401 90263
COSMOS 2492 (754)       
1 39620U 14012A   24333.88020168 -.00000040  00000+0  00000+0 0  9999
2 39620  65.6031 333.0826 0014464 310.7097  49.1932  2.13103278 83190
COSMOS 2500 (755)       
1 40001U 14032A   24334.52665338 -.00000040  00000+0  00000+0 0  9992
2 40001  65.5396 332.8528 0008389 221.4514 138.5117  2.13106033 81429
COSMOS 2501 (702K)      
1 40315U 14075A   24335.25109263  .00000081  00000+0  00000+0 0  9992
2 40315  63.6161 209.9092 0019235 205.1330 154.8716  2.13101467 77835
COSMOS 2514 (751)       
1 41330U 16008A   24334.29544179 -.00000041  00000+0  00000+0 0  9997
2 41330  65.3332 332.3283 0012493 222.0130 137.9174  2.13102707 68580
COSMOS 2522 (752)       
1 42939U 17055A   24334.13523138  .00000073  00000+0  00000+0 0  9995
2 42939  64.0774 211.1334 0006399 231.9152 128.1205  2.13102040 55936
COSMOS 2527 (756)       
1 43508U 18053A   24334.09461528 -.00000006  00000+0  00000+0 0  9993
2 43508  65.2790  92.8016 0008482 220.4417 139.4759  2.13102289 50235
COSMOS 2529 (757)       
1 43687U 18086A   24335.13187231  .00000079  00000+0  00000+0 0  9998
2 43687  64.2930 211.6568 0007565 260.6903  99.3214  2.13102060 47264
COSMOS 2534 (758)       
1 44299U 19030A   24333.29058535  .00000063  00000+0  00000+0 0  9990
2 44299  64.3659 211.6881 0009849 287.1191 234.5519  2.13102208 42867
COSMOS 2544 (759)       
1 44850U 19088A   24334.03880826 -.00000006  00000+0  00000+0 0  9993
2 44850  65.2659  92.6373 0012914 248.3761 111.4671  2.13102055 38656
COSMOS 2545 (760)       
1 45358U 20018A   24334.70485950 -.00000042  00000+0  00000+0 0  9995
2 45358  64.6721 332.1901 0012128 250.1355 109.7585  2.13102576 36637
COSMOS 2547 (705K)      
1 46805U 20075A   24333.48361860  .00000066  00000+0  00000+0 0  9998
2 46805  64.5957 211.3718 0006224 234.7021 125.3299  2.13102889 31859
COSMOS 2557 (706K)      
1 52984U 22075A   24334.58810991 -.00000042  00000+0  00000+0 0  9996
2 52984  64.6032 334.3088 0014117 277.5480  82.3199  2.13102070 18688
COSMOS 2559 (707K)      
1 54031U 22130A   24335.00079822 -.00000042  00000+0  00000+0 0  9991
2 54031  64.5750 334.4063 0008182 233.6520 126.3001  2.13101421 16662
COSMOS 2564 (761)       
1 54377U 22161A   24334.25248308  .00000074  00000+0  00000+0 0  9995
2 54377  64.7370 211.4805 0008304 210.3398 149.7058  2.13102183 15592
COSMOS 2569 (703K)      
1 57517U 23114A   24334.73765894 -.00000007  00000+0  00000+0 0  9997
2 57517  64.9953  91.7035 0009604 289.3260  70.5515  2.13104123 10233
